[{"OBJECT_NAME":"STARLINK-31976","OBJECT_ID":"2024-100C","EPOCH":"2026-03-09T12:14:46.048416","MEAN_MOTION":15.27599527,"ECCENTRICITY":0.00017707,"INCLINATION":43.0015,"RA_OF_ASC_NODE":130.3389,"ARG_OF_PERICENTER":234.8036,"MEAN_ANOMALY":125.265,"EPHEMERIS_TYPE":0,"CLASSIFICATION_TYPE":"U","NORAD_CAT_ID":59887,"ELEMENT_SET_NO":999,"REV_AT_EPOCH":10108,"BSTAR":-0.00016273516,"MEAN_MOTION_DOT":-4.74e-5,"MEAN_MOTION_DDOT":0},{"OBJECT_NAME":"FENGYUN 1C DEB","OBJECT_ID":"1999-025ETT","EPOCH":"2026-03-07T08:30:03.670560","MEAN_MOTION":15.28888299,"ECCENTRICITY":0.00158464,"INCLINATION":99.1103,"RA_OF_ASC_NODE":112.0072,"ARG_OF_PERICENTER":201.0032,"MEAN_ANOMALY":159.0553,"EPHEMERIS_TYPE":0,"CLASSIFICATION_TYPE":"U","NORAD_CAT_ID":38726,"ELEMENT_SET_NO":999,"REV_AT_EPOCH":71135,"BSTAR":0.013792546,"MEAN_MOTION_DOT":0.00409659,"MEAN_MOTION_DDOT":0}]
